{
    "links": {
        "self": "http://www.neowsapp.com/rest/v1/neo/3730332?api_key=iIulBulltgU6a56xZRHN4H3l9WmuAYTsLGpBGhQ2"
    },
    "id": "3730332",
    "neo_reference_id": "3730332",
    "name": "(2015 TZ178)",
    "designation": "2015 TZ178",
    "nasa_jpl_url": "http://ssd.jpl.nasa.gov/sbdb.cgi?sstr=3730332",
    "absolute_magnitude_h": 21.0,
    "estimated_diameter": {
        "kilometers": {
            "estimated_diameter_min": 0.1677084622,
            "estimated_diameter_max": 0.3750075218
        },
        "meters": {
            "estimated_diameter_min": 167.7084621628,
            "estimated_diameter_max": 375.0075217981
        },
        "miles": {
            "estimated_diameter_min": 0.1042091748,
            "estimated_diameter_max": 0.2330187988
        },
        "feet": {
            "estimated_diameter_min": 550.2246310023,
            "estimated_diameter_max": 1230.3396778159
        }
    },
    "is_potentially_hazardous_asteroid": false,
    "close_approach_data": [
        {
            "close_approach_date": "2015-10-01",
            "close_approach_date_full": "2015-Oct-01 16:22",
            "epoch_date_close_approach": 1443716520000,
            "relative_velocity": {
                "kilometers_per_second": "10.8982384006",
                "kilometers_per_hour": "39233.6582419883",
                "miles_per_hour": "24378.2694781954"
            },
            "miss_distance": {
                "astronomical": "0.4180999835",
                "lunar": "162.6408935815",
                "kilometers": "62546866.978635145",
                "miles": "38864820.954829201"
            },
            "orbiting_body": "Earth"
        }
    ],
    "orbital_data": {
        "orbit_id": "10",
        "orbit_determination_date": "2017-04-06 08:31:21",
        "first_observation_date": "2015-10-12",
        "last_observation_date": "2015-11-14",
        "data_arc_in_days": 33,
        "observations_used": 42,
        "orbit_uncertainty": "7",
        "minimum_orbit_intersection": ".353082",
        "jupiter_tisserand_invariant": "3.359",
        "epoch_osculation": "2459000.5",
        "eccentricity": ".4847272929038142",
        "semi_major_axis": "2.275964540365047",
        "inclination": "21.93138473724361",
        "ascending_node_longitude": "36.25198184524935",
        "orbital_period": "1254.141860948883",
        "perihelion_distance": "1.172742409968824",
        "perihelion_argument": "287.1569942437563",
        "aphelion_distance": "3.379186670761269",
        "perihelion_time": "2458489.535864423455",
        "mean_anomaly": "146.6716760960214",
        "mean_motion": ".2870488668065225",
        "equinox": "J2000",
        "orbit_class": {
            "orbit_class_type": "AMO",
            "orbit_class_description": "Near-Earth asteroid orbits similar to that of 1221 Amor",
            "orbit_class_range": "1.017 AU < q (perihelion) < 1.3 AU"
        }
    },
    "is_sentry_object": false
}